STARLINK-4140           
1 53259U 22086T   26068.64334719 -.00000143  00000+0  91045-5 0  9993
2 53259  53.2170 193.9708 0001174  93.4607 266.6520 15.08836749201060
STARLINK-6085           
1 57115U 23090Q   26068.53746065  .00027564  00000+0  15302-2 0  9997
2 57115  42.9983 264.1938 0019382 205.4773 154.5119 15.13089153150525
